NORAD_CAT_ID,OBJECT_NAME,OBJECT_TYPE,EPOCH,MEAN_MOTION,ECCENTRICITY,INCLINATION,RA_OF_ASC_NODE,ARG_OF_PERICENTER,MEAN_ANOMALY,BSTAR,MEAN_MOTION_DOT,MEAN_MOTION_DDOT,TLE_LINE0,TLE_LINE1,TLE_LINE2,SEMIMAJOR_AXIS,PERIOD,APOGEE,PERIGEE,DECAYED
53841.0,STARLINK-4750,PAYLOAD,2024-03-12 01:37:51,15.08826872,0.0001122,53.2176,320.6704,112.4462,247.665,0.00071073,0.00011037,0.0,0 STARLINK-4750,1 53841U 22114Z   24072.06796245  .00011037  00000-0  71073-3 0  9998,2 53841  53.2176 320.6704 0001122 112.4462 247.6650 15.08826872 82585,6917.921,95.438,540.562,539.009,0.0
53841.0,STARLINK-4750,PAYLOAD,2024-03-12 22:17:55,15.0881619,0.0001022,53.2176,316.8041,102.5763,257.5343,0.00047125,7.215e-05,0.0,0 STARLINK-4750,1 53841U 22114Z   24072.92911191  .00007215  00000-0  47125-3 0  9996,2 53841  53.2176 316.8041 0001022 102.5763 257.5343 15.08816190 83255,6917.953,95.439,540.525,539.111,0.0
53841.0,STARLINK-4750,PAYLOAD,2024-03-13 01:28:40,15.08849802,0.0001339,53.2178,316.2112,84.4134,275.7011,7.3951e-05,8.9e-06,0.0,0 STARLINK-4750,1 53841U 22114Z   24073.06158147  .00000890  00000-0  73951-4 0  9995,2 53841  53.2178 316.2112 0001339  84.4134 275.7011 15.08849802 82733,6917.85,95.437,540.642,538.789,0.0
53841.0,STARLINK-4750,PAYLOAD,2024-03-13 09:25:36,15.08844488,0.0001262,53.2166,314.7238,89.0131,271.1006,-1.0787e-05,-4.6e-06,0.0,0 STARLINK-4750,1 53841U 22114Z   24073.39278444 -.00000460  00000-0 -10787-4 0  9997,2 53841  53.2166 314.7238 0001262  89.0131 271.1006 15.08844488 82789,6917.867,95.437,540.605,538.859,0.0
53841.0,STARLINK-4750,PAYLOAD,2024-03-13 22:08:40,15.08855748,0.0001225,53.217,312.3441,98.9769,261.1361,-0.00010861,-2.017e-05,0.0,0 STARLINK-4750,1 53841U 22114Z   24073.92269559 -.00002017  00000-0 -10861-3 0  9995,2 53841  53.2170 312.3441 0001225  98.9769 261.1361 15.08855748 83403,6917.832,95.437,540.545,538.85,0.0
53841.0,STARLINK-4750,PAYLOAD,2024-03-14 20:24:04,15.08848505,0.0001333,53.2169,308.183,91.0948,269.0197,5.1611e-06,-2.06e-06,0.0,0 STARLINK-4750,1 53841U 22114Z   24074.85005530 -.00000206  00000-0  51611-5 0  9992,2 53841  53.2169 308.1830 0001333  91.0948 269.0197 15.08848505 83002,6917.854,95.437,540.642,538.797,0.0
53841.0,STARLINK-4750,PAYLOAD,2024-03-14 21:59:27,15.0884921,0.0001348,53.217,307.8861,88.5968,271.5178,-3.842e-07,-2.94e-06,0.0,0 STARLINK-4750,1 53841U 22114Z   24074.91629492 -.00000294  00000-0 -38420-6 0  9990,2 53841  53.2170 307.8861 0001348  88.5968 271.5178 15.08849210 83554,6917.852,95.437,540.65,538.785,0.0
53841.0,STARLINK-4750,PAYLOAD,2024-03-15 15:28:42,15.08838256,0.0001549,53.2164,304.6114,93.6686,266.4483,2.3334e-05,8.3e-07,0.0,0 STARLINK-4750,1 53841U 22114Z   24075.64494071  .00000083  00000-0  23334-4 0  9994,2 53841  53.2164 304.6114 0001549  93.6686 266.4483 15.08838256 83123,6917.886,95.438,540.822,538.679,0.0
53841.0,STARLINK-4750,PAYLOAD,2024-03-15 21:50:15,15.08836576,0.0001437,53.2169,303.4188,107.6713,252.4436,4.8755e-05,4.88e-06,0.0,0 STARLINK-4750,1 53841U 22114Z   24075.90990038  .00000488  00000-0  48755-4 0  9990,2 53841  53.2169 303.4188 0001437 107.6713 252.4436 15.08836576 83709,6917.891,95.438,540.75,538.762,0.0
53841.0,STARLINK-4750,PAYLOAD,2024-03-16 01:01:01,15.08835598,0.0001529,53.2173,302.8254,106.6301,253.486,3.176e-05,2.17e-06,0.0,0 STARLINK-4750,1 53841U 22114Z   24076.04238203  .00000217  00000-0  31760-4 0  9993,2 53841  53.2173 302.8254 0001529 106.6301 253.4860 15.08835598 83722,6917.894,95.438,540.817,538.701,0.0
53841.0,STARLINK-4750,PAYLOAD,2024-03-16 20:05:39,15.08841461,0.0001695,53.2161,299.2572,106.0408,254.0771,-4.8688e-06,-3.66e-06,0.0,0 STARLINK-4750,1 53841U 22114Z   24076.83726088 -.00000366  00000-0 -48688-5 0  9998,2 53841  53.2161 299.2572 0001695 106.0408 254.0771 15.08841461 83305,6917.876,95.437,540.914,538.568,0.0
53841.0,STARLINK-4750,PAYLOAD,2024-03-16 21:41:02,15.08843024,0.0001507,53.2168,298.9596,114.6931,245.4218,-2.2778e-05,-6.51e-06,0.0,0 STARLINK-4750,1 53841U 22114Z   24076.90349973 -.00000651  00000-0 -22778-4 0  9998,2 53841  53.2168 298.9596 0001507 114.6931 245.4218 15.08843024 83859,6917.871,95.437,540.779,538.694,0.0
53841.0,STARLINK-4750,PAYLOAD,2024-03-17 00:51:48,15.08843262,0.000152,53.2169,298.3648,114.8651,245.2499,-2.1901e-05,-6.37e-06,0.0,0 STARLINK-4750,1 53841U 22114Z   24077.03597943 -.00000637  00000-0 -21901-4 0  9996,2 53841  53.2169 298.3648 0001520 114.8651 245.2499 15.08843262 83873,6917.87,95.437,540.787,538.684,0.0
53841.0,STARLINK-4750,PAYLOAD,2024-03-17 21:31:49,15.08838741,0.0001368,53.2173,294.4998,90.5952,269.5197,7.0093e-05,8.28e-06,0.0,0 STARLINK-4750,1 53841U 22114Z   24077.89710264  .00000828  00000-0  70093-4 0  9999,2 53841  53.2173 294.4998 0001368  90.5952 269.5197 15.08838741 83462,6917.884,95.438,540.696,538.803,0.0
53841.0,STARLINK-4750,PAYLOAD,2024-03-18 00:42:35,15.08839973,0.000136,53.2172,293.9047,91.323,268.7918,7.7428e-05,9.45e-06,0.0,0 STARLINK-4750,1 53841U 22114Z   24078.02958172  .00000945  00000-0  77428-4 0  9996,2 53841  53.2172 293.9047 0001360  91.3230 268.7918 15.08839973 84023,6917.88,95.438,540.686,538.805,0.0
53841.0,STARLINK-4750,PAYLOAD,2024-03-18 21:22:37,15.08837331,0.0001353,53.217,290.0376,81.8691,278.2454,4.3463e-05,4.04e-06,0.0,0 STARLINK-4750,1 53841U 22114Z   24078.89070629  .00000404  00000-0  43463-4 0  9995,2 53841  53.2170 290.0376 0001353  81.8691 278.2454 15.08837331 84152,6917.889,95.438,540.69,538.818,0.0
53841.0,STARLINK-4750,PAYLOAD,2024-03-19 00:33:23,15.08836835,0.0001356,53.217,289.4432,81.4546,278.6599,3.4946e-05,2.68e-06,0.0,0 STARLINK-4750,1 53841U 22114Z   24079.02318709  .00000268  00000-0  34946-4 0  9999,2 53841  53.2170 289.4432 0001356  81.4546 278.6599 15.08836835 83639,6917.89,95.438,540.693,538.817,0.0
53841.0,STARLINK-4750,PAYLOAD,2024-03-19 21:13:23,15.08848666,0.0001222,53.2161,285.5783,89.4181,270.6951,0.00010407,1.369e-05,0.0,0 STARLINK-4750,1 53841U 22114Z   24079.88429825  .00001369  00000-0  10407-3 0  9993,2 53841  53.2161 285.5783 0001222  89.4181 270.6951 15.08848666 83763,6917.854,95.437,540.564,538.874,0.0
53841.0,STARLINK-4750,PAYLOAD,2024-03-20 13:07:15,15.08836345,0.0001624,53.2164,282.6096,65.0137,295.1024,6.8389e-05,8e-06,0.0,0 STARLINK-4750,1 53841U 22114Z   24080.54671006  .00000800  00000-0  68389-4 0  9990,2 53841  53.2164 282.6096 0001624  65.0137 295.1024 15.08836345 84404,6917.892,95.438,540.88,538.633,0.0
53841.0,STARLINK-4750,PAYLOAD,2024-03-20 21:04:11,15.08842898,0.0001157,53.2165,281.1215,80.8377,279.2746,-2.4357e-05,-6.75e-06,0.0,0 STARLINK-4750,1 53841U 22114Z   24080.87790879 -.00000675  00000-0 -24357-4 0  9995,2 53841  53.2165 281.1215 0001157  80.8377 279.2746 15.08842898 83913,6917.872,95.437,540.537,538.936,0.0
53841.0,STARLINK-4750,PAYLOAD,2024-03-21 12:58:02,15.08839615,0.0001529,53.2162,278.1473,95.2033,264.9134,4.6846e-05,4.58e-06,0.0,0 STARLINK-4750,1 53841U 22114Z   24081.54031090  .00000458  00000-0  46846-4 0  9997,2 53841  53.2162 278.1473 0001529  95.2033 264.9134 15.08839615 84550,6917.882,95.438,540.804,538.689,0.0
53841.0,STARLINK-4750,PAYLOAD,2024-03-21 19:19:34,15.08847078,0.0001262,53.2159,276.9579,80.3738,279.7397,6.9237e-05,8.14e-06,0.0,0 STARLINK-4750,1 53841U 22114Z   24081.80526554  .00000814  00000-0  69237-4 0  9995,2 53841  53.2159 276.9579 0001262  80.3738 279.7397 15.08847078 84591,6917.859,95.437,540.597,538.851,0.0
53841.0,STARLINK-4750,PAYLOAD,2024-03-22 19:10:21,15.0884931,0.0001273,53.2149,272.4977,78.5837,281.5298,0.00025618,3.793e-05,0.0,0 STARLINK-4750,1 53841U 22114Z   24082.79886474  .00003793  00000-0  25618-3 0  9997,2 53841  53.2149 272.4977 0001273  78.5837 281.5298 15.08849310 84204,6917.852,95.437,540.598,538.836,0.0
53841.0,STARLINK-4750,PAYLOAD,2024-03-22 22:21:07,15.08855763,0.0001282,53.2147,271.9016,84.868,275.2458,0.00023379,3.436e-05,0.0,0 STARLINK-4750,1 53841U 22114Z   24082.93134029  .00003436  00000-0  23379-3 0  9991,2 53841  53.2147 271.9016 0001282  84.8680 275.2458 15.08855763 84764,6917.832,95.437,540.584,538.81,0.0
53841.0,STARLINK-4750,PAYLOAD,2024-03-23 12:39:37,15.0883593,0.0001071,53.215,269.2263,71.8696,288.2412,-1.027e-05,-4.51e-06,0.0,0 STARLINK-4750,1 53841U 22114Z   24083.52751162 -.00000451  00000-0 -10270-4 0  9993,2 53841  53.2150 269.2263 0001071  71.8696 288.2412 15.08835930 84310,6917.893,95.438,540.499,539.017,0.0
53841.0,STARLINK-4750,PAYLOAD,2024-03-23 19:01:09,15.08843196,0.0001231,53.2149,268.0366,89.1616,270.9517,9.3764e-05,1.205e-05,0.0,0 STARLINK-4750,1 53841U 22114Z   24083.79246820  .00001205  00000-0  93764-4 0  9997,2 53841  53.2149 268.0366 0001231  89.1616 270.9517 15.08843196 84891,6917.871,95.437,540.587,538.884,0.0
53841.0,STARLINK-4750,PAYLOAD,2024-03-24 12:30:23,15.08845378,0.0001368,53.2157,264.765,103.8197,256.2947,0.00014041,1.948e-05,0.0,0 STARLINK-4750,1 53841U 22114Z   24084.52110671  .00001948  00000-0  14041-3 0  9997,2 53841  53.2157 264.7650 0001368 103.8197 256.2947 15.08845378 85000,6917.864,95.437,540.675,538.783,0.0
53841.0,STARLINK-4750,PAYLOAD,2024-03-24 18:51:55,15.08858501,0.000128,53.2156,263.5776,97.5222,262.5915,0.0005607,8.651e-05,0.0,0 STARLINK-4750,1 53841U 22114Z   24084.78606297  .00008651  00000-0  56070-3 0  9995,2 53841  53.2156 263.5776 0001280  97.5222 262.5915 15.08858501 85047,6917.824,95.436,540.574,538.803,0.0
53841.0,STARLINK-4750,PAYLOAD,2024-03-25 04:24:14,15.08859776,0.0001267,53.2152,261.7922,84.6262,275.4875,0.00059429,9.188e-05,0.0,0 STARLINK-4750,1 53841U 22114Z   24085.18349975  .00009188  00000-0  59429-3 0  9994,2 53841  53.2152 261.7922 0001267  84.6262 275.4875 15.08859776 84561,6917.82,95.436,540.561,538.808,0.0
53841.0,STARLINK-4750,PAYLOAD,2024-03-25 12:21:10,15.08856013,0.0002365,53.2155,260.3043,78.7598,281.366,0.00045365,6.942e-05,0.0,0 STARLINK-4750,1 53841U 22114Z   24085.51470398  .00006942  00000-0  45365-3 0  9994,2 53841  53.2155 260.3043 0002365  78.7598 281.3660 15.08856013 84614,6917.831,95.437,541.333,538.06,0.0
